NAVSTAR 68 (USA 242)    
1 39166U 13023A   26064.97752527 -.00000015  00000+0  00000+0 0  9991
2 39166  54.5849 273.1765 0141644  49.9392 311.3205  2.00564238 93815
INSAT-3D                
1 39216U 13038B   26066.60611702 -.00000340  00000+0  00000+0 0  9995
2 39216   1.6634  83.8695 0001658 250.1631 178.9722  1.00272160 46061
NAVSTAR 69 (USA 248)    
1 39533U 14008A   26065.47472293  .00000007  00000+0  00000+0 0  9998
2 39533  53.6378 153.5106 0082370 228.3710 130.9618  2.00553245 87628
LUCH-5V                 
1 39727U 14023A   26066.02820178 -.00000270  00000+0  00000+0 0  9994
2 39727   4.8814  70.7503 0003075 285.6629 273.2102  1.00271257 43335
NAVSTAR 70 (USA 251)    
1 39741U 14026A   26065.75269462 -.00000100  00000+0  00000+0 0  9997
2 39741  56.5453 335.5082 0039837 324.6602  35.1138  2.00568575 86488
NAVSTAR 71 (USA 256)    
1 40105U 14045A   26065.34175882 -.00000006  00000+0  00000+0 0  9996
2 40105  55.2826  92.5609 0031506 120.4642 239.9070  2.00551673 84017
GSAT0201 (GALILEO 5)    
1 40128U 14050A   26062.23675925 -.00000027  00000+0  00000+0 0  9998
2 40128  48.9889 277.7718 1657553 175.2875 186.5034  1.85520013 76352
GSAT0202 (GALILEO 6)    
1 40129U 14050B   26065.18759423 -.00000036  00000+0  00000+0 0  9992
2 40129  49.0025 276.7356 1658927 176.1364 185.3302  1.85520810 78579
NAVSTAR 72 (USA 258)    
1 40294U 14068A   26065.71831198 -.00000077  00000+0  00000+0 0  9998
2 40294  56.9211  34.9026 0062902  68.0531 292.5994  2.00570053 83150
COSMOS 2501 [GLONASS-K] 
1 40315U 14075A   26060.84023701 -.00000015  00000+0  00000+0 0  9994
2 40315  63.6170 194.0851 0020735 205.7160 154.1408  2.13101099 87569
NAVSTAR 73 (USA 260)    
1 40534U 15013A   26065.35117279  .00000016  00000+0  00000+0 0  9995
2 40534  53.1859 208.4290 0108755  39.8054 320.9401  2.00557521 79764
GSAT0203 (GALILEO 7)    
1 40544U 15017A   26064.97404081 -.00000105  00000+0  00000+0 0  9997
2 40544  56.8210 344.4123 0005169 295.9030  64.0652  1.70475708 67444
GSAT0204 (GALILEO 8)    
1 40545U 15017B   26058.19060141 -.00000102  00000+0  00000+0 0  9997
2 40545  56.8295 344.6151 0004389 286.3298  73.6287  1.70475370 30371
NAVSTAR 74 (USA 262)    
1 40730U 15033A   26066.01024086 -.00000009  00000+0  00000+0 0  9995
2 40730  54.0627 271.2974 0114563  29.0325 331.6191  2.00561541 77948
METEOSAT-11 (MSG-4)     
1 40732U 15034A   26066.26572604  .00000060  00000+0  00000+0 0  9995
2 40732   2.9449  71.6638 0001809 270.7549 287.5565  1.00267000  6199
GSAT0205 (GALILEO 9)    
1 40889U 15045A   26043.95434207  .00000078  00000+0  00000+0 0  9996
2 40889  53.6403 225.6057 0359599  59.9658 303.5577  1.67410800 64211
GSAT0206 (GALILEO 10)   
1 40890U 15045B   26065.80504493  .00000023  00000+0  00000+0 0  9991
2 40890  54.9807 224.4283 0003692  50.2396 309.7351  1.70473796 65290
